CCSDS_OMM_VERS = 2.0
CREATION_DATE  = 
ORIGINATOR     = 

OBJECT_NAME    = UNKNOWN
OBJECT_ID      = 
CENTER_NAME    = EARTH
REF_FRAME      = TEME
TIME_SYSTEM    = UTC
MEAN_ELEMENT_THEORY = SGP/SGP4

EPOCH          = 2025-11-24T17:11:45.053952
MEAN_MOTION    = 13.48305247
ECCENTRICITY   = .01925347
INCLINATION    = 82.9393
RA_OF_ASC_NODE = 312.3141
ARG_OF_PERICENTER = 292.1498
MEAN_ANOMALY   = 65.9308

EPHEMERIS_TYPE = 0
CLASSIFICATION_TYPE = U
NORAD_CAT_ID   = 270310
ELEMENT_SET_NO = 999
REV_AT_EPOCH   = 22905
BSTAR          = .63306153E-3
MEAN_MOTION_DOT = .451E-5
MEAN_MOTION_DDOT = 0

CCSDS_OMM_VERS = 2.0
CREATION_DATE  = 
ORIGINATOR     = 

OBJECT_NAME    = UNKNOWN
OBJECT_ID      = 
CENTER_NAME    = EARTH
REF_FRAME      = TEME
TIME_SYSTEM    = UTC
MEAN_ELEMENT_THEORY = SGP/SGP4

EPOCH          = 2025-11-24T22:23:05.100288
MEAN_MOTION    = 14.50481161
ECCENTRICITY   = .0019423
INCLINATION    = 98.7994
RA_OF_ASC_NODE = 313.3462
ARG_OF_PERICENTER = 228.4706
MEAN_ANOMALY   = 131.4821

EPHEMERIS_TYPE = 0
CLASSIFICATION_TYPE = U
NORAD_CAT_ID   = 270311
ELEMENT_SET_NO = 999
REV_AT_EPOCH   = 24338
BSTAR          = .29532425E-2
MEAN_MOTION_DOT = .1155E-3
MEAN_MOTION_DDOT = 0

CCSDS_OMM_VERS = 2.0
CREATION_DATE  = 
ORIGINATOR     = 

OBJECT_NAME    = UNKNOWN
OBJECT_ID      = 
CENTER_NAME    = EARTH
REF_FRAME      = TEME
TIME_SYSTEM    = UTC
MEAN_ELEMENT_THEORY = SGP/SGP4

EPOCH          = 2025-11-24T18:22:43.109472
MEAN_MOTION    = 14.18196059
ECCENTRICITY   = .00293119
INCLINATION    = 98.4481
RA_OF_ASC_NODE = 331.2589
ARG_OF_PERICENTER = 184.2212
MEAN_ANOMALY   = 175.8721

EPHEMERIS_TYPE = 0
CLASSIFICATION_TYPE = U
NORAD_CAT_ID   = 270312
ELEMENT_SET_NO = 999
REV_AT_EPOCH   = 31009
BSTAR          = .33964396E-3
MEAN_MOTION_DOT = .66E-5
MEAN_MOTION_DDOT = 0

CCSDS_OMM_VERS = 2.0
CREATION_DATE  = 
ORIGINATOR     = 

OBJECT_NAME    = UNKNOWN
OBJECT_ID      = 
CENTER_NAME    = EARTH
REF_FRAME      = TEME
TIME_SYSTEM    = UTC
MEAN_ELEMENT_THEORY = SGP/SGP4

EPOCH          = 2025-11-13T09:29:12.660288
MEAN_MOTION    = 12.95163755
ECCENTRICITY   = .00273499
INCLINATION    = 90.2485
RA_OF_ASC_NODE = 6.3339
ARG_OF_PERICENTER = 56.3513
MEAN_ANOMALY   = 304.0210

EPHEMERIS_TYPE = 0
CLASSIFICATION_TYPE = U
NORAD_CAT_ID   = 270313
ELEMENT_SET_NO = 999
REV_AT_EPOCH   = 27713
BSTAR          = .66652662E-3
MEAN_MOTION_DOT = .195E-5
MEAN_MOTION_DDOT = 0

CCSDS_OMM_VERS = 2.0
CREATION_DATE  = 
ORIGINATOR     = 

OBJECT_NAME    = UNKNOWN
OBJECT_ID      = 
CENTER_NAME    = EARTH
REF_FRAME      = TEME
TIME_SYSTEM    = UTC
MEAN_ELEMENT_THEORY = SGP/SGP4

EPOCH          = 2025-11-24T19:11:56.221728
MEAN_MOTION    = 12.94717305
ECCENTRICITY   = .00292354
INCLINATION    = 90.2444
RA_OF_ASC_NODE = 2.4525
ARG_OF_PERICENTER = 85.5204
MEAN_ANOMALY   = 274.9254

EPHEMERIS_TYPE = 0
CLASSIFICATION_TYPE = U
NORAD_CAT_ID   = 270314
ELEMENT_SET_NO = 999
REV_AT_EPOCH   = 26617
BSTAR          = .17347132E-2
MEAN_MOTION_DOT = .493E-5
MEAN_MOTION_DDOT = 0

CCSDS_OMM_VERS = 2.0
CREATION_DATE  = 
ORIGINATOR     = 

OBJECT_NAME    = UNKNOWN
OBJECT_ID      = 
CENTER_NAME    = EARTH
REF_FRAME      = TEME
TIME_SYSTEM    = UTC
MEAN_ELEMENT_THEORY = SGP/SGP4

EPOCH          = 2025-11-07T09:06:46.101600
MEAN_MOTION    = 14.10146605
ECCENTRICITY   = .02747827
INCLINATION    = 97.6741
RA_OF_ASC_NODE = 191.6088
ARG_OF_PERICENTER = 116.8266
MEAN_ANOMALY   = 246.1289

EPHEMERIS_TYPE = 0
CLASSIFICATION_TYPE = U
NORAD_CAT_ID   = 270315
ELEMENT_SET_NO = 999
REV_AT_EPOCH   = 27894
BSTAR          = .21241393E-2
MEAN_MOTION_DOT = .5311E-4
MEAN_MOTION_DDOT = 0

CCSDS_OMM_VERS = 2.0
CREATION_DATE  = 
ORIGINATOR     = 

OBJECT_NAME    = UNKNOWN
OBJECT_ID      = 
CENTER_NAME    = EARTH
REF_FRAME      = TEME
TIME_SYSTEM    = UTC
MEAN_ELEMENT_THEORY = SGP/SGP4

EPOCH          = 2025-11-24T12:01:23.484864
MEAN_MOTION    = 14.20554091
ECCENTRICITY   = .00041159
INCLINATION    = 81.2083
RA_OF_ASC_NODE = 55.0380
ARG_OF_PERICENTER = 0.5074
MEAN_ANOMALY   = 359.6106

EPHEMERIS_TYPE = 0
CLASSIFICATION_TYPE = U
NORAD_CAT_ID   = 270316
ELEMENT_SET_NO = 999
REV_AT_EPOCH   = 26151
BSTAR          = .1291636E-2
MEAN_MOTION_DOT = .2787E-4
MEAN_MOTION_DDOT = 0

CCSDS_OMM_VERS = 2.0
CREATION_DATE  = 
ORIGINATOR     = 

OBJECT_NAME    = UNKNOWN
OBJECT_ID      = 
CENTER_NAME    = EARTH
REF_FRAME      = TEME
TIME_SYSTEM    = UTC
MEAN_ELEMENT_THEORY = SGP/SGP4

EPOCH          = 2025-11-17T19:41:13.776576
MEAN_MOTION    = 12.93301093
ECCENTRICITY   = .00258142
INCLINATION    = 90.2455
RA_OF_ASC_NODE = 2.6556
ARG_OF_PERICENTER = 100.3906
MEAN_ANOMALY   = 260.0123

EPHEMERIS_TYPE = 0
CLASSIFICATION_TYPE = U
NORAD_CAT_ID   = 270317
ELEMENT_SET_NO = 999
REV_AT_EPOCH   = 6747
BSTAR          = .8787162E-3
MEAN_MOTION_DOT = .248E-5
MEAN_MOTION_DDOT = 0

CCSDS_OMM_VERS = 2.0
CREATION_DATE  = 
ORIGINATOR     = 

OBJECT_NAME    = UNKNOWN
OBJECT_ID      = 
CENTER_NAME    = EARTH
REF_FRAME      = TEME
TIME_SYSTEM    = UTC
MEAN_ELEMENT_THEORY = SGP/SGP4

EPOCH          = 2025-11-17T15:54:46.532448
MEAN_MOTION    = 12.51812391
ECCENTRICITY   = .04451943
INCLINATION    = 103.0697
RA_OF_ASC_NODE = 102.4120
ARG_OF_PERICENTER = 2.1310
MEAN_ANOMALY   = 358.1531

EPHEMERIS_TYPE = 0
CLASSIFICATION_TYPE = U
NORAD_CAT_ID   = 270319
ELEMENT_SET_NO = 999
REV_AT_EPOCH   = 5919
BSTAR          = .28899711E-1
MEAN_MOTION_DOT = .6428E-4
MEAN_MOTION_DDOT = 0

CCSDS_OMM_VERS = 2.0
CREATION_DATE  = 
ORIGINATOR     = 

OBJECT_NAME    = UNKNOWN
OBJECT_ID      = 
CENTER_NAME    = EARTH
REF_FRAME      = TEME
TIME_SYSTEM    = UTC
MEAN_ELEMENT_THEORY = SGP/SGP4

EPOCH          = 2025-11-24T19:13:49.330560
MEAN_MOTION    = 12.99460872
ECCENTRICITY   = .00281317
INCLINATION    = 90.2397
RA_OF_ASC_NODE = 0.7731
ARG_OF_PERICENTER = 143.1918
MEAN_ANOMALY   = 217.1142

EPHEMERIS_TYPE = 0
CLASSIFICATION_TYPE = U
NORAD_CAT_ID   = 270320
ELEMENT_SET_NO = 999
REV_AT_EPOCH   = 21808
BSTAR          = .1174315E-4
MEAN_MOTION_DOT = .11E-6
MEAN_MOTION_DDOT = 0

CCSDS_OMM_VERS = 2.0
CREATION_DATE  = 
ORIGINATOR     = 

OBJECT_NAME    = UNKNOWN
OBJECT_ID      = 
CENTER_NAME    = EARTH
REF_FRAME      = TEME
TIME_SYSTEM    = UTC
MEAN_ELEMENT_THEORY = SGP/SGP4

EPOCH          = 2025-11-18T20:41:48.129504
MEAN_MOTION    = 12.92637629
ECCENTRICITY   = .0031748
INCLINATION    = 90.2466
RA_OF_ASC_NODE = 2.0915
ARG_OF_PERICENTER = 114.6864
MEAN_ANOMALY   = 245.7565

EPHEMERIS_TYPE = 0
CLASSIFICATION_TYPE = U
NORAD_CAT_ID   = 270321
ELEMENT_SET_NO = 999
REV_AT_EPOCH   = 23887
BSTAR          = .11269863E-2
MEAN_MOTION_DOT = .314E-5
MEAN_MOTION_DDOT = 0

CCSDS_OMM_VERS = 2.0
CREATION_DATE  = 
ORIGINATOR     = 

OBJECT_NAME    = UNKNOWN
OBJECT_ID      = 
CENTER_NAME    = EARTH
REF_FRAME      = TEME
TIME_SYSTEM    = UTC
MEAN_ELEMENT_THEORY = SGP/SGP4

EPOCH          = 2025-11-15T08:45:18.527328
MEAN_MOTION    = 12.93101497
ECCENTRICITY   = .00325497
INCLINATION    = 90.2423
RA_OF_ASC_NODE = 1.7747
ARG_OF_PERICENTER = 118.9165
MEAN_ANOMALY   = 241.5224

EPHEMERIS_TYPE = 0
CLASSIFICATION_TYPE = U
NORAD_CAT_ID   = 270322
ELEMENT_SET_NO = 999
REV_AT_EPOCH   = 21447
BSTAR          = .10870475E-2
MEAN_MOTION_DOT = .305E-5
MEAN_MOTION_DDOT = 0

CCSDS_OMM_VERS = 2.0
CREATION_DATE  = 
ORIGINATOR     = 

OBJECT_NAME    = UNKNOWN
OBJECT_ID      = 
CENTER_NAME    = EARTH
REF_FRAME      = TEME
TIME_SYSTEM    = UTC
MEAN_ELEMENT_THEORY = SGP/SGP4

EPOCH          = 2025-11-12T05:46:30.695520
MEAN_MOTION    = 14.43550177
ECCENTRICITY   = .00404051
INCLINATION    = 81.2849
RA_OF_ASC_NODE = 138.6880
ARG_OF_PERICENTER = 169.7716
MEAN_ANOMALY   = 190.4306

EPHEMERIS_TYPE = 0
CLASSIFICATION_TYPE = U
NORAD_CAT_ID   = 270323
ELEMENT_SET_NO = 999
REV_AT_EPOCH   = 27296
BSTAR          = .88578298E-2
MEAN_MOTION_DOT = .30417E-3
MEAN_MOTION_DDOT = 0

CCSDS_OMM_VERS = 2.0
CREATION_DATE  = 
ORIGINATOR     = 

OBJECT_NAME    = UNKNOWN
OBJECT_ID      = 
CENTER_NAME    = EARTH
REF_FRAME      = TEME
TIME_SYSTEM    = UTC
MEAN_ELEMENT_THEORY = SGP/SGP4

EPOCH          = 2025-11-19T05:08:09.565440
MEAN_MOTION    = 12.32528208
ECCENTRICITY   = .06709729
INCLINATION    = 66.0248
RA_OF_ASC_NODE = 297.3009
ARG_OF_PERICENTER = 287.5124
MEAN_ANOMALY   = 65.3656

EPHEMERIS_TYPE = 0
CLASSIFICATION_TYPE = U
NORAD_CAT_ID   = 270324
ELEMENT_SET_NO = 999
REV_AT_EPOCH   = 24528
BSTAR          = .39381931E-3
MEAN_MOTION_DOT = .47E-6
MEAN_MOTION_DDOT = 0

CCSDS_OMM_VERS = 2.0
CREATION_DATE  = 
ORIGINATOR     = 

OBJECT_NAME    = UNKNOWN
OBJECT_ID      = 
CENTER_NAME    = EARTH
REF_FRAME      = TEME
TIME_SYSTEM    = UTC
MEAN_ELEMENT_THEORY = SGP/SGP4

EPOCH          = 2025-11-19T09:01:28.524576
MEAN_MOTION    = 12.96938194
ECCENTRICITY   = .00313657
INCLINATION    = 90.2339
RA_OF_ASC_NODE = 352.2914
ARG_OF_PERICENTER = 246.4232
MEAN_ANOMALY   = 113.3593

EPHEMERIS_TYPE = 0
CLASSIFICATION_TYPE = U
NORAD_CAT_ID   = 270325
ELEMENT_SET_NO = 999
REV_AT_EPOCH   = 23818
BSTAR          = .15737268E-2
MEAN_MOTION_DOT = .461E-5
MEAN_MOTION_DDOT = 0

CCSDS_OMM_VERS = 2.0
CREATION_DATE  = 
ORIGINATOR     = 

OBJECT_NAME    = UNKNOWN
OBJECT_ID      = 
CENTER_NAME    = EARTH
REF_FRAME      = TEME
TIME_SYSTEM    = UTC
MEAN_ELEMENT_THEORY = SGP/SGP4

EPOCH          = 2025-11-08T20:56:21.728544
MEAN_MOTION    = 13.01489365
ECCENTRICITY   = .00329605
INCLINATION    = 90.2382
RA_OF_ASC_NODE = 359.1197
ARG_OF_PERICENTER = 220.9918
MEAN_ANOMALY   = 138.8727

EPHEMERIS_TYPE = 0
CLASSIFICATION_TYPE = U
NORAD_CAT_ID   = 270326
ELEMENT_SET_NO = 999
REV_AT_EPOCH   = 26013
BSTAR          = .22382431E-2
MEAN_MOTION_DOT = .697E-5
MEAN_MOTION_DDOT = 0

